XRISM                   
1 57800U 23137A   23274.49688301  .00006044  00000+0  49245-3 0  9993
2 57800  31.0034 221.4718 0010087 161.1831 198.9178 14.98046536  3591
